start=new Date('2021-12-18T00:00:00.000Z').valueOf();
sats=[{"REF_FRAME":"TEME","ECCENTRICITY":"0.00035240","SITE":"AFETR","DECAY_DATE":null,"ELEMENT_SET_NO":"999","MEAN_MOTION_DDOT":"0.0000000000000","MEAN_MOTION_DOT":"0.00045135","EPHEMERIS_TYPE":"0","BSTAR":"0.00143690000000","PERIOD":"93.986","MEAN_MOTION":"15.32148964","TIME_SYSTEM":"UTC","LAUNCH_DATE":"2021-03-24","APOAPSIS":"471.817","INCLINATION":"53.0442","EPOCH":"2021-12-17T22:00:00.999936","TLE_LINE1":"1 47996U 21024V   21351.91667824  .00045135  00000-0  14369-2 0  9992","COUNTRY_CODE":"US","MEAN_ANOMALY":"7.8383","REV_AT_EPOCH":"364","NORAD_CAT_ID":"47996","CENTER_NAME":"EARTH","PERIAPSIS":"466.991","MEAN_ELEMENT_THEORY":"SGP4","RA_OF_ASC_NODE":"320.4234","CLASSIFICATION_TYPE":"U","OBJECT_ID":"2021-024V","ARG_OF_PERICENTER":"35.1423","RCS_SIZE":"LARGE","FILE":"3243045","TLE_LINE2":"2 47996  53.0442 320.4234 0003524  35.1423   7.8383 15.32148964  3640","SEMIMAJOR_AXIS":"6847.539","OBJECT_NAME":"STARLINK-2260","GP_ID":"191901937","OBJECT_TYPE":"PAYLOAD"},{"MEAN_ANOMALY":"299.3080","REV_AT_EPOCH":"4178","NORAD_CAT_ID":"47997","CENTER_NAME":"EARTH","PERIAPSIS":"546.363","MEAN_ELEMENT_THEORY":"SGP4","RA_OF_ASC_NODE":"39.6407","CLASSIFICATION_TYPE":"U","OBJECT_ID":"2021-024W","RCS_SIZE":"LARGE","ARG_OF_PERICENTER":"60.8033","SEMIMAJOR_AXIS":"6925.356","TLE_LINE2":"2 47997  53.0556  39.6407 0001240  60.8033 299.3080 15.06397414 41789","FILE":"3242718","OBJECT_NAME":"STARLINK-2266","GP_ID":"191874584","OBJECT_TYPE":"PAYLOAD","REF_FRAME":"TEME","ECCENTRICITY":"0.00012400","SITE":"AFETR","ELEMENT_SET_NO":"999","DECAY_DATE":null,"MEAN_MOTION_DDOT":"0.0000000000000","MEAN_MOTION_DOT":"0.00000899","EPHEMERIS_TYPE":"0","BSTAR":"0.00007924300000","PERIOD":"95.592","MEAN_MOTION":"15.06397414","TIME_SYSTEM":"UTC","LAUNCH_DATE":"2021-03-24","APOAPSIS":"548.080","INCLINATION":"53.0556","EPOCH":"2021-12-17T10:02:19.869792","TLE_LINE1":"1 47997U 21024W   21351.41828553  .00000899  00000-0  79243-4 0  9998","COUNTRY_CODE":"US"},{"OBJECT_NAME":"STARLINK-2296","SEMIMAJOR_AXIS":"6925.337","TLE_LINE2":"2 47998  53.0551  12.9059 0001642  62.0104 298.1051 15.06403754 42658","FILE":"3243045","OBJECT_TYPE":"PAYLOAD","GP_ID":"191903438","RA_OF_ASC_NODE":"12.9059","ARG_OF_PERICENTER":"62.0104","RCS_SIZE":"LARGE","OBJECT_ID":"2021-024X","CLASSIFICATION_TYPE":"U","MEAN_ELEMENT_THEORY":"SGP4","PERIAPSIS":"546.065","MEAN_ANOMALY":"298.1051","CENTER_NAME":"EARTH","NORAD_CAT_ID":"47998","REV_AT_EPOCH":"4265","APOAPSIS":"548.339","COUNTRY_CODE":"US","EPOCH":"2021-12-17T19:13:38.073504","TLE_LINE1":"1 47998U 21024X   21351.80113511  .00000495  00000-0  52155-4 0  9998","INCLINATION":"53.0551","MEAN_MOTION":"15.06403754","LAUNCH_DATE":"2021-03-24","TIME_SYSTEM":"UTC","MEAN_MOTION_DOT":"0.00000495","MEAN_MOTION_DDOT":"0.0000000000000","PERIOD":"95.592","EPHEMERIS_TYPE":"0","BSTAR":"0.00005215500000","ECCENTRICITY":"0.00016420","REF_FRAME":"TEME","DECAY_DATE":null,"ELEMENT_SET_NO":"999","SITE":"AFETR"},{"LAUNCH_DATE":"2021-03-24","TIME_SYSTEM":"UTC","MEAN_MOTION":"15.06428965","COUNTRY_CODE":"US","INCLINATION":"53.0547","EPOCH":"2021-12-17T22:00:00.999936","TLE_LINE1":"1 47999U 21024Y   21351.91667824 -.00156090  00000-0 -10683-1 0  9994","APOAPSIS":"548.777","ELEMENT_SET_NO":"999","DECAY_DATE":null,"SITE":"AFETR","ECCENTRICITY":"0.00023860","REF_FRAME":"TEME","PERIOD":"95.590","BSTAR":"-0.01068300000000","EPHEMERIS_TYPE":"0","MEAN_MOTION_DDOT":"0.0000000000000","MEAN_MOTION_DOT":"-0.00156090","OBJECT_ID":"2021-024Y","RCS_SIZE":"LARGE","ARG_OF_PERICENTER":"54.7294","CLASSIFICATION_TYPE":"U","RA_OF_ASC_NODE":"342.3882","OBJECT_TYPE":"PAYLOAD","GP_ID":"191903689","OBJECT_NAME":"STARLINK-2218","SEMIMAJOR_AXIS":"6925.260","TLE_LINE2":"2 47999  53.0547 342.3882 0002386  54.7294 357.2966 15.06428965  3607","FILE":"3243045","CENTER_NAME":"EARTH","REV_AT_EPOCH":"360","NORAD_CAT_ID":"47999","MEAN_ANOMALY":"357.2966","MEAN_ELEMENT_THEORY":"SGP4","PERIAPSIS":"545.472"},{"RA_OF_ASC_NODE":"327.3792","ARG_OF_PERICENTER":"50.1064","RCS_SIZE":"LARGE","OBJECT_ID":"2021-024Z","CLASSIFICATION_TYPE":"U","OBJECT_NAME":"STARLINK-2270","TLE_LINE2":"2 48000  53.0537 327.3792 0002010  50.1064 124.4336 15.06379910  3602","FILE":"3243045","SEMIMAJOR_AXIS":"6925.410","OBJECT_TYPE":"PAYLOAD","GP_ID":"191902437","MEAN_ANOMALY":"124.4336","CENTER_NAME":"EARTH","NORAD_CAT_ID":"48000","REV_AT_EPOCH":"360","MEAN_ELEMENT_THEORY":"SGP4","PERIAPSIS":"545.883","MEAN_MOTION":"15.06379910","LAUNCH_DATE":"2021-03-24","TIME_SYSTEM":"UTC","APOAPSIS":"548.667","COUNTRY_CODE":"US","TLE_LINE1":"1 48000U 21024Z   21351.91667824  .00026122  00000-0  17670-2 0  9992","EPOCH":"2021-12-17T22:00:00.999936","INCLINATION":"53.0537","ECCENTRICITY":"0.00020100","REF_FRAME":"TEME","DECAY_DATE":null,"ELEMENT_SET_NO":"999","SITE":"AFETR","MEAN_MOTION_DDOT":"0.0000000000000","MEAN_MOTION_DOT":"0.00026122","PERIOD":"95.593","EPHEMERIS_TYPE":"0","BSTAR":"0.00176700000000"},{"MEAN_MOTION":"15.06402414","TIME_SYSTEM":"UTC","LAUNCH_DATE":"2021-03-24","APOAPSIS":"548.473","EPOCH":"2021-12-17T20:02:04.195392","TLE_LINE1":"1 48002U 21024AB  21351.83477078 -.00000086  00000-0  13117-4 0  9991","INCLINATION":"53.0565","COUNTRY_CODE":"US","REF_FRAME":"TEME","ECCENTRICITY":"0.00018300","SITE":"AFETR","ELEMENT_SET_NO":"999","DECAY_DATE":null,"MEAN_MOTION_DDOT":"0.0000000000000","MEAN_MOTION_DOT":"-0.00000086","EPHEMERIS_TYPE":"0","BSTAR":"0.00001311700000","PERIOD":"95.592","RA_OF_ASC_NODE":"347.7504","CLASSIFICATION_TYPE":"U","ARG_OF_PERICENTER":"55.9269","RCS_SIZE":"LARGE","OBJECT_ID":"2021-024AB","TLE_LINE2":"2 48002  53.0565 347.7504 0001830  55.9269 304.1893 15.06402414 43000","SEMIMAJOR_AXIS":"6925.341","FILE":"3243045","OBJECT_NAME":"STARLINK-2265","GP_ID":"191902687","OBJECT_TYPE":"PAYLOAD","MEAN_ANOMALY":"304.1893","NORAD_CAT_ID":"48002","REV_AT_EPOCH":"4300","CENTER_NAME":"EARTH","PERIAPSIS":"545.939","MEAN_ELEMENT_THEORY":"SGP4"},{"MEAN_MOTION_DDOT":"0.0000000000000","MEAN_MOTION_DOT":"0.00000520","BSTAR":"0.00005379200000","EPHEMERIS_TYPE":"0","PERIOD":"95.592","REF_FRAME":"TEME","ECCENTRICITY":"0.00014070","SITE":"AFETR","ELEMENT_SET_NO":"999","DECAY_DATE":null,"APOAPSIS":"548.197","TLE_LINE1":"1 48003U 21024AC  21351.72007113  .00000520  00000-0  53792-4 0  9994","EPOCH":"2021-12-17T17:16:54.145632","INCLINATION":"53.0564","COUNTRY_CODE":"US","MEAN_MOTION":"15.06396958","TIME_SYSTEM":"UTC","LAUNCH_DATE":"2021-03-24","PERIAPSIS":"546.248","MEAN_ELEMENT_THEORY":"SGP4","MEAN_ANOMALY":"282.4850","NORAD_CAT_ID":"48003","REV_AT_EPOCH":"4193","CENTER_NAME":"EARTH","TLE_LINE2":"2 48003  53.0564  63.2677 0001407  77.6296 282.4850 15.06396958 41938","SEMIMAJOR_AXIS":"6925.358","FILE":"3243045","OBJECT_NAME":"STARLINK-2263","GP_ID":"191902939","OBJECT_TYPE":"PAYLOAD","RA_OF_ASC_NODE":"63.2677","CLASSIFICATION_TYPE":"U","ARG_OF_PERICENTER":"77.6296","RCS_SIZE":"LARGE","OBJECT_ID":"2021-024AC"},{"MEAN_ANOMALY":"286.4225","REV_AT_EPOCH":"4358","NORAD_CAT_ID":"48004","CENTER_NAME":"EARTH","PERIAPSIS":"299.160","MEAN_ELEMENT_THEORY":"SGP4","RA_OF_ASC_NODE":"307.0959","CLASSIFICATION_TYPE":"U","OBJECT_ID":"2021-024AD","RCS_SIZE":"LARGE","ARG_OF_PERICENTER":"73.6922","TLE_LINE2":"2 48004  53.0414 307.0959 0001104  73.6922 286.4225 15.90852619 43588","SEMIMAJOR_AXIS":"6678.033","FILE":"3243045","OBJECT_NAME":"STARLINK-2261","GP_ID":"191903190","OBJECT_TYPE":"PAYLOAD","REF_FRAME":"TEME","ECCENTRICITY":"0.00011040","SITE":"AFETR","DECAY_DATE":null,"ELEMENT_SET_NO":"999","MEAN_MOTION_DOT":"-0.00030485","MEAN_MOTION_DDOT":"0.0000113060000","BSTAR":"-0.00008416800000","EPHEMERIS_TYPE":"0","PERIOD":"90.517","MEAN_MOTION":"15.90852619","TIME_SYSTEM":"UTC","LAUNCH_DATE":"2021-03-24","APOAPSIS":"300.635","INCLINATION":"53.0414","TLE_LINE1":"1 48004U 21024AD  21351.89288396 -.00030485  11306-4 -84168-4 0  9998","EPOCH":"2021-12-17T21:25:45.174144","COUNTRY_CODE":"US"},{"MEAN_ELEMENT_THEORY":"SGP4","PERIAPSIS":"546.863","CENTER_NAME":"EARTH","REV_AT_EPOCH":"4237","NORAD_CAT_ID":"48005","MEAN_ANOMALY":"243.8280","OBJECT_TYPE":"PAYLOAD","GP_ID":"191901938","OBJECT_NAME":"STARLINK-2254","SEMIMAJOR_AXIS":"6925.371","TLE_LINE2":"2 48005  53.0553  32.7955 0000538 116.2764 243.8280 15.06392652 42376","FILE":"3243045","OBJECT_ID":"2021-024AE","ARG_OF_PERICENTER":"116.2764","RCS_SIZE":"LARGE","CLASSIFICATION_TYPE":"U","RA_OF_ASC_NODE":"32.7955","PERIOD":"95.593","EPHEMERIS_TYPE":"0","BSTAR":"0.00018719000000","MEAN_MOTION_DDOT":"0.0000000000000","MEAN_MOTION_DOT":"0.00002508","ELEMENT_SET_NO":"999","DECAY_DATE":null,"SITE":"AFETR","ECCENTRICITY":"0.00005380","REF_FRAME":"TEME","COUNTRY_CODE":"US","INCLINATION":"53.0553","TLE_LINE1":"1 48005U 21024AE  21351.82975434  .00002508  00000-0  18719-3 0  9994","EPOCH":"2021-12-17T19:54:50.774976","APOAPSIS":"547.609","LAUNCH_DATE":"2021-03-24","TIME_SYSTEM":"UTC","MEAN_MOTION":"15.06392652"},{"BSTAR":"0.00296500000000","EPHEMERIS_TYPE":"0","PERIOD":"89.677","MEAN_MOTION_DDOT":"0.0034532000000","MEAN_MOTION_DOT":"0.02082629","SITE":"AFETR","ELEMENT_SET_NO":"999","DECAY_DATE":null,"REF_FRAME":"TEME","ECCENTRICITY":"0.00049290","TLE_LINE1":"1 48007U 21024AG  21351.88444863  .02082629  34532-2  29650-2 0  9997","EPOCH":"2021-12-17T21:13:36.361632","INCLINATION":"53.0356","COUNTRY_CODE":"US","APOAPSIS":"261.744","TIME_SYSTEM":"UTC","LAUNCH_DATE":"2021-03-24","MEAN_MOTION":"16.05770653","PERIAPSIS":"255.202","MEAN_ELEMENT_THEORY":"SGP4","NORAD_CAT_ID":"48007","REV_AT_EPOCH":"4310","CENTER_NAME":"EARTH","MEAN_ANOMALY":"283.5477","GP_ID":"191880328","OBJECT_TYPE":"PAYLOAD","TLE_LINE2":"2 48007  53.0356 306.8430 0004929 168.2993 283.5477 16.05770653 43103","SEMIMAJOR_AXIS":"6636.608","FILE":"3242998","OBJECT_NAME":"STARLINK-2259","CLASSIFICATION_TYPE":"U","RCS_SIZE":"LARGE","ARG_OF_PERICENTER":"168.2993","OBJECT_ID":"2021-024AG","RA_OF_ASC_NODE":"306.8430"}];
